UNKNOWN                 
1 87843U          26036.01782186  .00002489  00000+0  56487-2 0  9994
2 87843  99.6587 150.6017 0245138 236.3526 121.3988 13.16820758571305
UNKNOWN                 
1 87845U          26058.29619743  .00003218  00000+0  59627-2 0  9998
2 87845  98.8650   5.8165 0579660  77.2437 289.2782 12.89217952575076
UNKNOWN                 
1 87878U          26055.58278495  .00003197  00000+0  99414-3 0  9993
2 87878  99.1593 185.3002 0035219  51.5116 308.9220 14.41404006621933
UNKNOWN                 
1 87884U          26059.56944444  .00000607  00000+0  35614-3 0  9991
2 87884  98.7315 165.6870 0153707 208.8803 150.3794 14.06044062629301
UNKNOWN                 
1 87991U          26058.90253881  .00004024  00000+0  77235-2 0  9996
2 87991  28.6287 295.8565 0895898 205.1452 150.2727 12.35692323532544
UNKNOWN                 
1 89005U          26059.32234742  .00004395  00000+0  98992-3 0  9991
2 89005  97.8419 247.6864 0190656 152.4854 208.6592 14.46193142545309
UNKNOWN                 
1 89029U          26035.99064593  .00008279  00000+0  75403-3 0  9996
2 89029  98.0469 301.6350 0022937 142.0484 218.2357 14.95225167659189
UNKNOWN                 
1 89101U          26059.04822902  .00000510  00000+0  16507-2 0  9994
2 89101 100.4705 358.3195 0146849 296.0429  62.5621 13.04034128564920
UNKNOWN                 
1 89132U          26057.72234989  .00004440  00000+0  56561-2 0  9993
2 89132  63.4380 322.0666 2931950 319.6085  21.9735  8.87879281331850
UNKNOWN                 
1 89146U          26059.58634527  .00003367  00000+0  61488-3 0  9998
2 89146  98.2524 353.3712 0091750 170.6328 189.6612 14.63919854640264
UNKNOWN                 
1 89161U          26058.79372128  .00314336  00000+0  28735-2 0  9991
2 89161  97.6422  84.3100 0023856 138.2756 222.0329 15.66512019560523
UNKNOWN                 
1 89172U          26059.22940776  .00005507  00000+0  86543-3 0  9991
2 89172  82.0648 149.0939 0282516  42.5724 319.6996 14.49033900613107
UNKNOWN                 
1 89183U          26059.53629471  .00000561  00000+0  53154-3 0  9990
2 89183  99.2182 333.8428 0130228 310.1492  48.8313 13.81692817617714
UNKNOWN                 
1 89184U          26059.59265224  .00025530  00000+0  29360-2 0  9993
2 89184  98.3866 293.1937 0007822 244.6402 115.4002 14.85730061503711
UNKNOWN                 
1 89213U          26055.61086014  .00000399  00000+0  28251-3 0  9998
2 89213  98.7735 289.8637 0226733 283.8627  73.7404 13.91690108462944
UNKNOWN                 
1 89251U          26058.94690163  .00018413  00000+0  10422-1 0  9990
2 89251  62.4723 262.3320 2826817 107.8404 284.8006  9.26741047380332
UNKNOWN                 
1 89261U          26051.43209576  .00000802  00000+0  25036-3 0  9994
2 89261  98.1600  47.8830 0011827 311.4506  48.5668 14.43288970543860
UNKNOWN                 
1 89349U          26054.31927184  .00000618  00000+0  21338-2 0  9998
2 89349  90.2492   8.9742 0032176  73.8867 286.5792 12.96277143488156
UNKNOWN                 
1 89379U          26059.29683304  .00004174  00000+0  53241-2 0  9995
2 89379 100.4779  85.3669 0041708 289.1917  70.4710 13.63413204591348
UNKNOWN                 
1 89395U          26056.82220192  .00000626  00000+0  75394-2 0  9992
2 89395 102.3782  25.8897 0224835 357.8513  32.7978 12.01543779533763
UNKNOWN                 
1 89403U          26059.63003594  .00001183  00000+0  39635-2 0  9996
2 89403  90.2518   7.5729 0032362  16.7785 165.9367 12.98851212487938
UNKNOWN                 
1 89484U          26059.50460033  .00180250  00000+0  66955-1 0  9993
2 89484  83.9639 131.9335 2872608 282.7168  47.1166  9.27144820362581
UNKNOWN                 
1 89493U          26059.42300704  .00002997  00000+0  14698-2 0  9991
2 89493  99.0180 134.3548 0083318 179.0018 181.1337 14.16758462474945
UNKNOWN                 
1 89494U          26057.43285511  .00002640  00000+0  12985-2 0  9991
2 89494  99.0174 132.2120 0083920 184.7163 175.3229 14.16679072474512
