OBJECT_NAME,OBJECT_ID,EPOCH,MEAN_MOTION,ECCENTRICITY,INCLINATION,RA_OF_ASC_NODE,ARG_OF_PERICENTER,MEAN_ANOMALY,EPHEMERIS_TYPE,CLASSIFICATION_TYPE,NORAD_CAT_ID,ELEMENT_SET_NO,REV_AT_EPOCH,BSTAR,MEAN_MOTION_DOT,MEAN_MOTION_DDOT
UNKNOWN,,2026-02-05T00:25:39.808704,13.16820758,.0245138,99.6587,150.6017,236.3526,121.3988,0,U,87843,999,57130,.56487E-2,.2489E-4,0
UNKNOWN,,2026-02-27T07:06:31.457952,12.89217952,.057966,98.8650,5.8165,77.2437,289.2782,0,U,87845,999,57507,.59627E-2,.3218E-4,0
UNKNOWN,,2026-02-24T13:59:12.619680,14.41404006,.0035219,99.1593,185.3002,51.5116,308.9220,0,U,87878,999,62193,.99414E-3,.3197E-4,0
UNKNOWN,,2026-02-28T13:39:59.999616,14.06044062,.0153707,98.7315,165.6870,208.8803,150.3794,0,U,87884,999,62930,.35614E-3,.607E-5,0
UNKNOWN,,2026-02-27T21:39:39.353184,12.35692323,.0895898,28.6287,295.8565,205.1452,150.2727,0,U,87991,999,53254,.77235E-2,.4024E-4,0
UNKNOWN,,2026-02-28T07:44:10.817088,14.46193142,.0190656,97.8419,247.6864,152.4854,208.6592,0,U,89005,999,54530,.98992E-3,.4395E-4,0
UNKNOWN,,2026-02-04T23:46:31.808352,14.95225167,.0022937,98.0469,301.6350,142.0484,218.2357,0,U,89029,999,65918,.75403E-3,.8279E-4,0
UNKNOWN,,2026-02-28T01:09:26.987328,13.04034128,.0146849,100.4705,358.3195,296.0429,62.5621,0,U,89101,999,56492,.16507E-2,.51E-5,0
UNKNOWN,,2026-02-26T17:20:11.030496,8.87879281,.293195,63.4380,322.0666,319.6085,21.9735,0,U,89132,999,33185,.56561E-2,.444E-4,0
UNKNOWN,,2026-02-28T14:04:20.231328,14.63919854,.009175,98.2524,353.3712,170.6328,189.6612,0,U,89146,999,64026,.61488E-3,.3367E-4,0
UNKNOWN,,2026-02-27T19:02:57.518592,15.66512019,.0023856,97.6422,84.3100,138.2756,222.0329,0,U,89161,999,56052,.28735E-2,.314336E-2,0
UNKNOWN,,2026-02-28T05:30:20.830464,14.49033900,.0282516,82.0648,149.0939,42.5724,319.6996,0,U,89172,999,61310,.86543E-3,.5507E-4,0
UNKNOWN,,2026-02-28T12:52:15.862944,13.81692817,.0130228,99.2182,333.8428,310.1492,48.8313,0,U,89183,999,61771,.53154E-3,.561E-5,0
UNKNOWN,,2026-02-28T14:13:25.153536,14.85730061,.0007822,98.3866,293.1937,244.6402,115.4002,0,U,89184,999,50371,.2936E-2,.2553E-3,0
UNKNOWN,,2026-02-24T14:39:38.316096,13.91690108,.0226733,98.7735,289.8637,283.8627,73.7404,0,U,89213,999,46294,.28251E-3,.399E-5,0
UNKNOWN,,2026-02-27T22:43:32.300832,9.26741047,.2826817,62.4723,262.3320,107.8404,284.8006,0,U,89251,999,38033,.10422E-1,.18413E-3,0
UNKNOWN,,2026-02-20T10:22:13.073664,14.43288970,.0011827,98.1600,47.8830,311.4506,48.5668,0,U,89261,999,54386,.25036E-3,.802E-5,0
UNKNOWN,,2026-02-23T07:39:45.086976,12.96277143,.0032176,90.2492,8.9742,73.8867,286.5792,0,U,89349,999,48815,.21338E-2,.618E-5,0
UNKNOWN,,2026-02-28T07:07:26.374656,13.63413204,.0041708,100.4779,85.3669,289.1917,70.4710,0,U,89379,999,59134,.53241E-2,.4174E-4,0
UNKNOWN,,2026-02-25T19:43:58.245888,12.01543779,.0224835,102.3782,25.8897,357.8513,32.7978,0,U,89395,999,53376,.75394E-2,.626E-5,0
UNKNOWN,,2026-02-28T15:07:15.105216,12.98851212,.0032362,90.2518,7.5729,16.7785,165.9367,0,U,89403,999,48793,.39635E-2,.1183E-4,0
UNKNOWN,,2026-02-28T12:06:37.468512,9.27144820,.2872608,83.9639,131.9335,282.7168,47.1166,0,U,89484,999,36258,.66955E-1,.18025E-2,0
UNKNOWN,,2026-02-28T10:09:07.808256,14.16758462,.0083318,99.0180,134.3548,179.0018,181.1337,0,U,89493,999,47494,.14698E-2,.2997E-4,0
UNKNOWN,,2026-02-26T10:23:18.681504,14.16679072,.008392,99.0174,132.2120,184.7163,175.3229,0,U,89494,999,47451,.12985E-2,.264E-4,0
